[{"OBJECT_NAME":"SCATSAT 1","OBJECT_ID":"2016-059H","EPOCH":"2026-03-09T17:18:57.175776","MEAN_MOTION":14.7926349,"ECCENTRICITY":0.00544061,"INCLINATION":98.1298,"RA_OF_ASC_NODE":131.4325,"ARG_OF_PERICENTER":207.4011,"MEAN_ANOMALY":152.4328,"EPHEMERIS_TYPE":0,"CLASSIFICATION_TYPE":"U","NORAD_CAT_ID":41790,"ELEMENT_SET_NO":999,"REV_AT_EPOCH":8688,"BSTAR":0.00025357446,"MEAN_MOTION_DOT":1.875e-5,"MEAN_MOTION_DDOT":0},{"OBJECT_NAME":"COSMOS 2251 DEB","OBJECT_ID":"1993-036XR","EPOCH":"2026-03-09T04:13:24.597696","MEAN_MOTION":14.6870271,"ECCENTRICITY":0.0009288,"INCLINATION":74.0281,"RA_OF_ASC_NODE":327.1984,"ARG_OF_PERICENTER":22.4991,"MEAN_ANOMALY":130.141,"EPHEMERIS_TYPE":0,"CLASSIFICATION_TYPE":"U","NORAD_CAT_ID":34671,"ELEMENT_SET_NO":999,"REV_AT_EPOCH":89565,"BSTAR":0.0016723721,"MEAN_MOTION_DOT":9.728e-5,"MEAN_MOTION_DDOT":0}]
